start=new Date('2023-03-08T00:00:00.000Z').valueOf();
sats=[{"REV_AT_EPOCH":"2601","CENTER_NAME":"EARTH","MEAN_MOTION_DDOT":"0.0000000000000","ELEMENT_SET_NO":"999","APOAPSIS":"540.392","FILE":"3854072","GP_ID":"227676650","MEAN_ELEMENT_THEORY":"SGP4","RCS_SIZE":"LARGE","EPHEMERIS_TYPE":"0","MEAN_MOTION_DOT":"-0.00004654","ARG_OF_PERICENTER":"132.3399","PERIOD":"95.439","OBJECT_ID":"2022-119V","NORAD_CAT_ID":"53905","OBJECT_NAME":"STARLINK-5003","TLE_LINE1":"1 53905U 22119V   23066.37566644 -.00004654  00000-0 -27474-3 0  9993","ECCENTRICITY":"0.00008170","LAUNCH_DATE":"2022-09-24","EPOCH":"2023-03-07T09:00:57.580416","OBJECT_TYPE":"PAYLOAD","RA_OF_ASC_NODE":"204.8570","MEAN_MOTION":"15.08813443","TIME_SYSTEM":"UTC","CLASSIFICATION_TYPE":"U","MEAN_ANOMALY":"227.7662","REF_FRAME":"TEME","COUNTRY_CODE":"US","BSTAR":"-0.00027474000000","PERIAPSIS":"539.261","TLE_LINE2":"2 53905  53.2158 204.8570 0000817 132.3399 227.7662 15.08813443 26018","DECAY_DATE":null,"SITE":"AFETR","SEMIMAJOR_AXIS":"6917.962","INCLINATION":"53.2158"},{"MEAN_MOTION_DOT":"0.00010520","ARG_OF_PERICENTER":"81.4071","MEAN_ELEMENT_THEORY":"SGP4","EPHEMERIS_TYPE":"0","RCS_SIZE":"LARGE","ECCENTRICITY":"0.00014450","OBJECT_NAME":"STARLINK-5054","TLE_LINE1":"1 53906U 22119W   23066.39032272  .00010520  00000-0  67812-3 0  9998","OBJECT_ID":"2022-119W","PERIOD":"95.438","NORAD_CAT_ID":"53906","REV_AT_EPOCH":"2602","MEAN_MOTION_DDOT":"0.0000000000000","CENTER_NAME":"EARTH","APOAPSIS":"540.755","FILE":"3854072","GP_ID":"227677897","ELEMENT_SET_NO":"999","DECAY_DATE":null,"SEMIMAJOR_AXIS":"6917.890","INCLINATION":"53.2168","SITE":"AFETR","MEAN_MOTION":"15.08836721","TIME_SYSTEM":"UTC","LAUNCH_DATE":"2022-09-24","EPOCH":"2023-03-07T09:22:03.883008","RA_OF_ASC_NODE":"204.2493","OBJECT_TYPE":"PAYLOAD","PERIAPSIS":"538.756","COUNTRY_CODE":"US","BSTAR":"0.00067812000000","TLE_LINE2":"2 53906  53.2168 204.2493 0001445  81.4071 278.7085 15.08836721 26027","MEAN_ANOMALY":"278.7085","CLASSIFICATION_TYPE":"U","REF_FRAME":"TEME"},{"MEAN_MOTION":"15.08843394","TIME_SYSTEM":"UTC","EPOCH":"2023-03-07T18:42:25.512480","LAUNCH_DATE":"2022-09-24","OBJECT_TYPE":"PAYLOAD","RA_OF_ASC_NODE":"212.3901","BSTAR":"0.00000818520000","COUNTRY_CODE":"US","PERIAPSIS":"538.805","TLE_LINE2":"2 53907  53.2169 212.3901 0001345  82.0114 278.1031 15.08843394 25946","CLASSIFICATION_TYPE":"U","MEAN_ANOMALY":"278.1031","REF_FRAME":"TEME","DECAY_DATE":null,"SEMIMAJOR_AXIS":"6917.870","INCLINATION":"53.2169","SITE":"AFETR","REV_AT_EPOCH":"2594","CENTER_NAME":"EARTH","MEAN_MOTION_DDOT":"0.0000000000000","APOAPSIS":"540.665","FILE":"3854072","GP_ID":"227677636","ELEMENT_SET_NO":"999","MEAN_MOTION_DOT":"-0.00000158","ARG_OF_PERICENTER":"82.0114","MEAN_ELEMENT_THEORY":"SGP4","RCS_SIZE":"LARGE","EPHEMERIS_TYPE":"0","OBJECT_NAME":"STARLINK-5063","TLE_LINE1":"1 53907U 22119X   23066.77946195 -.00000158  00000-0  81852-5 0  9998","ECCENTRICITY":"0.00013450","OBJECT_ID":"2022-119X","PERIOD":"95.437","NORAD_CAT_ID":"53907"},{"SEMIMAJOR_AXIS":"6917.823","INCLINATION":"53.2179","SITE":"AFETR","DECAY_DATE":null,"PERIAPSIS":"538.608","COUNTRY_CODE":"US","BSTAR":"0.00027598000000","TLE_LINE2":"2 53908  53.2179 203.0319 0001562  93.2602 266.8569 15.08858729 26078","MEAN_ANOMALY":"266.8569","CLASSIFICATION_TYPE":"U","REF_FRAME":"TEME","MEAN_MOTION":"15.08858729","TIME_SYSTEM":"UTC","EPOCH":"2023-03-07T18:22:38.653824","LAUNCH_DATE":"2022-09-24","RA_OF_ASC_NODE":"203.0319","OBJECT_TYPE":"PAYLOAD","ECCENTRICITY":"0.00015620","OBJECT_NAME":"STARLINK-5057","TLE_LINE1":"1 53908U 22119Y   23066.76572516  .00004109  00000-0  27598-3 0  9994","PERIOD":"95.436","OBJECT_ID":"2022-119Y","NORAD_CAT_ID":"53908","MEAN_MOTION_DOT":"0.00004109","ARG_OF_PERICENTER":"93.2602","MEAN_ELEMENT_THEORY":"SGP4","EPHEMERIS_TYPE":"0","RCS_SIZE":"LARGE","FILE":"3854072","APOAPSIS":"540.769","GP_ID":"227676901","ELEMENT_SET_NO":"999","REV_AT_EPOCH":"2607","CENTER_NAME":"EARTH","MEAN_MOTION_DDOT":"0.0000000000000"},{"BSTAR":"0.00026788000000","COUNTRY_CODE":"US","PERIAPSIS":"538.192","TLE_LINE2":"2 53909  53.2141 204.8801 0002220  90.4467 269.6780 15.08845636 26016","CLASSIFICATION_TYPE":"U","MEAN_ANOMALY":"269.6780","REF_FRAME":"TEME","TIME_SYSTEM":"UTC","MEAN_MOTION":"15.08845636","EPOCH":"2023-03-07T09:06:15.680160","LAUNCH_DATE":"2022-09-24","OBJECT_TYPE":"PAYLOAD","RA_OF_ASC_NODE":"204.8801","SEMIMAJOR_AXIS":"6917.863","INCLINATION":"53.2141","SITE":"AFETR","DECAY_DATE":null,"APOAPSIS":"541.264","FILE":"3854072","GP_ID":"227677150","ELEMENT_SET_NO":"999","REV_AT_EPOCH":"2601","CENTER_NAME":"EARTH","MEAN_MOTION_DDOT":"0.0000000000000","TLE_LINE1":"1 53909U 22119Z   23066.37934815  .00003978  00000-0  26788-3 0  9999","OBJECT_NAME":"STARLINK-4796","ECCENTRICITY":"0.00022200","OBJECT_ID":"2022-119Z","PERIOD":"95.437","NORAD_CAT_ID":"53909","MEAN_MOTION_DOT":"0.00003978","ARG_OF_PERICENTER":"90.4467","MEAN_ELEMENT_THEORY":"SGP4","RCS_SIZE":"LARGE","EPHEMERIS_TYPE":"0"},{"BSTAR":"0.00225750000000","COUNTRY_CODE":"US","PERIAPSIS":"539.146","TLE_LINE2":"2 53910  53.2170 202.9869 0000713 112.0913 248.0155 15.08874699 26079","CLASSIFICATION_TYPE":"U","MEAN_ANOMALY":"248.0155","REF_FRAME":"TEME","TIME_SYSTEM":"UTC","MEAN_MOTION":"15.08874699","EPOCH":"2023-03-07T18:12:01.994688","LAUNCH_DATE":"2022-09-24","OBJECT_TYPE":"PAYLOAD","RA_OF_ASC_NODE":"202.9869","SEMIMAJOR_AXIS":"6917.774","INCLINATION":"53.2170","SITE":"AFETR","DECAY_DATE":null,"APOAPSIS":"540.133","FILE":"3854072","GP_ID":"227677398","ELEMENT_SET_NO":"999","REV_AT_EPOCH":"2607","CENTER_NAME":"EARTH","MEAN_MOTION_DDOT":"0.0000000000000","TLE_LINE1":"1 53910U 22119AA  23066.75835642  .00035857  00000-0  22575-2 0  9991","OBJECT_NAME":"STARLINK-5056","ECCENTRICITY":"0.00007130","PERIOD":"95.435","OBJECT_ID":"2022-119AA","NORAD_CAT_ID":"53910","MEAN_MOTION_DOT":"0.00035857","ARG_OF_PERICENTER":"112.0913","MEAN_ELEMENT_THEORY":"SGP4","RCS_SIZE":"LARGE","EPHEMERIS_TYPE":"0"},{"MEAN_MOTION_DDOT":"0.0000000000000","CENTER_NAME":"EARTH","REV_AT_EPOCH":"2601","ELEMENT_SET_NO":"999","GP_ID":"227678136","APOAPSIS":"540.705","FILE":"3854072","EPHEMERIS_TYPE":"0","RCS_SIZE":"LARGE","MEAN_ELEMENT_THEORY":"SGP4","ARG_OF_PERICENTER":"96.8750","MEAN_MOTION_DOT":"0.00001752","NORAD_CAT_ID":"53911","OBJECT_ID":"2022-119AB","PERIOD":"95.438","ECCENTRICITY":"0.00013490","OBJECT_NAME":"STARLINK-5048","TLE_LINE1":"1 53911U 22119AB  23066.37198575  .00001752  00000-0  12817-3 0  9993","RA_OF_ASC_NODE":"204.8347","OBJECT_TYPE":"PAYLOAD","EPOCH":"2023-03-07T08:55:39.568800","LAUNCH_DATE":"2022-09-24","TIME_SYSTEM":"UTC","MEAN_MOTION":"15.08831283","REF_FRAME":"TEME","MEAN_ANOMALY":"263.2396","CLASSIFICATION_TYPE":"U","TLE_LINE2":"2 53911  53.2154 204.8347 0001349  96.8750 263.2396 15.08831283 26010","PERIAPSIS":"538.839","BSTAR":"0.00012817000000","COUNTRY_CODE":"US","DECAY_DATE":null,"SITE":"AFETR","INCLINATION":"53.2154","SEMIMAJOR_AXIS":"6917.907"},{"REV_AT_EPOCH":"2602","CENTER_NAME":"EARTH","MEAN_MOTION_DDOT":"0.0000000000000","ELEMENT_SET_NO":"999","APOAPSIS":"540.789","FILE":"3854072","GP_ID":"227676402","MEAN_ELEMENT_THEORY":"SGP4","EPHEMERIS_TYPE":"0","RCS_SIZE":"LARGE","MEAN_MOTION_DOT":"-0.00001140","ARG_OF_PERICENTER":"78.9279","PERIOD":"95.438","OBJECT_ID":"2022-119AC","NORAD_CAT_ID":"53912","ECCENTRICITY":"0.00015110","TLE_LINE1":"1 53912U 22119AC  23066.38662735 -.00001140  00000-0 -53547-4 0  9998","OBJECT_NAME":"STARLINK-5059","EPOCH":"2023-03-07T09:16:44.603040","LAUNCH_DATE":"2022-09-24","RA_OF_ASC_NODE":"204.2307","OBJECT_TYPE":"PAYLOAD","TIME_SYSTEM":"UTC","MEAN_MOTION":"15.08840466","MEAN_ANOMALY":"281.1883","CLASSIFICATION_TYPE":"U","REF_FRAME":"TEME","PERIAPSIS":"538.699","COUNTRY_CODE":"US","BSTAR":"-0.00005354700000","TLE_LINE2":"2 53912  53.2146 204.2307 0001511  78.9279 281.1883 15.08840466 26024","DECAY_DATE":null,"SITE":"AFETR","SEMIMAJOR_AXIS":"6917.879","INCLINATION":"53.2146"},{"RCS_SIZE":"LARGE","EPHEMERIS_TYPE":"0","MEAN_ELEMENT_THEORY":"SGP4","ARG_OF_PERICENTER":"88.3057","MEAN_MOTION_DOT":"0.00000618","NORAD_CAT_ID":"53913","OBJECT_ID":"2022-119AD","PERIOD":"95.442","TLE_LINE1":"1 53913U 22119AD  23066.75101626  .00000618  00000-0  57034-4 0  9999","OBJECT_NAME":"STARLINK-5053","ECCENTRICITY":"0.00014870","MEAN_MOTION_DDOT":"0.0000000000000","CENTER_NAME":"EARTH","REV_AT_EPOCH":"2607","ELEMENT_SET_NO":"999","GP_ID":"227676651","FILE":"3854072","APOAPSIS":"540.975","DECAY_DATE":null,"SITE":"AFETR","INCLINATION":"53.2168","SEMIMAJOR_AXIS":"6918.081","OBJECT_TYPE":"PAYLOAD","RA_OF_ASC_NODE":"202.9387","LAUNCH_DATE":"2022-09-24","EPOCH":"2023-03-07T18:01:27.804864","MEAN_MOTION":"15.08774433","TIME_SYSTEM":"UTC","REF_FRAME":"TEME","CLASSIFICATION_TYPE":"U","MEAN_ANOMALY":"271.8105","TLE_LINE2":"2 53913  53.2168 202.9387 0001487  88.3057 271.8105 15.08774433 26071","BSTAR":"0.00005703400000","COUNTRY_CODE":"US","PERIAPSIS":"538.917"},{"MEAN_MOTION":"15.08844089","TIME_SYSTEM":"UTC","RA_OF_ASC_NODE":"202.9125","OBJECT_TYPE":"PAYLOAD","EPOCH":"2023-03-07T17:56:07.061280","LAUNCH_DATE":"2022-09-24","TLE_LINE2":"2 53914  53.2174 202.9125 0001480  77.4815 282.6343 15.08844089 26072","PERIAPSIS":"538.709","COUNTRY_CODE":"US","BSTAR":"0.00022716000000","REF_FRAME":"TEME","MEAN_ANOMALY":"282.6343","CLASSIFICATION_TYPE":"U","DECAY_DATE":null,"INCLINATION":"53.2174","SEMIMAJOR_AXIS":"6917.868","SITE":"AFETR","CENTER_NAME":"EARTH","MEAN_MOTION_DDOT":"0.0000000000000","REV_AT_EPOCH":"2607","GP_ID":"227677898","APOAPSIS":"540.757","FILE":"3854072","ELEMENT_SET_NO":"999","ARG_OF_PERICENTER":"77.4815","MEAN_MOTION_DOT":"0.00003330","EPHEMERIS_TYPE":"0","RCS_SIZE":"LARGE","MEAN_ELEMENT_THEORY":"SGP4","ECCENTRICITY":"0.00014800","OBJECT_NAME":"STARLINK-5040","TLE_LINE1":"1 53914U 22119AE  23066.74730395  .00003330  00000-0  22716-3 0  9992","NORAD_CAT_ID":"53914","OBJECT_ID":"2022-119AE","PERIOD":"95.437"}];
